STARLINK-4098           
1 53153U 22083X   24239.07482151  .00000961  00000+0  78465-4 0  9999
2 53153  53.2164 160.8195 0001224  88.7512 271.3620 15.08837476117357
STARLINK-4077           
1 53154U 22083Y   24239.47963247 -.00001364  00000+0 -67672-4 0  9992
2 53154  53.2183 159.0056 0001667 104.8397 255.2780 15.08825931117415
STARLINK-4088           
1 53155U 22083Z   24239.06746370 -.00000255  00000+0  20712-5 0  9996
2 53155  53.2158 160.8534 0001178  82.7339 277.3787 15.08831848117355
STARLINK-4087           
1 53156U 22083AA  24239.52008418  .00000716  00000+0  63068-4 0  9993
2 53156  53.2172 158.6939 0001301  93.3285 266.7856 15.08840593117426
STARLINK-4093           
1 53157U 22083AB  24239.06010531  .00000399  00000+0  43151-4 0  9990
2 53157  53.2173 160.8851 0001442  85.2835 274.8322 15.08833143117356
STARLINK-4054           
1 53158U 22083AC  24239.00490503 -.00000093  00000+0  12220-4 0  9991
2 53158  53.2170 161.1297 0001477 100.1584 259.9575 15.08833807117348
STARLINK-4111           
1 53159U 22083AD  24238.52282200  .00000096  00000+0  24099-4 0  9990
2 53159  53.2165 163.2907 0001409  94.4098 265.7055 15.08840883116646
STARLINK-4096           
1 53160U 22083AE  24239.06378642  .00000231  00000+0  32596-4 0  9990
2 53160  53.2165 160.8685 0001563  93.5034 266.6137 15.08831568117355
STARLINK-4055           
1 53161U 22083AF  24239.50537758 -.00001438  00000+0 -72233-4 0  9999
2 53161  53.2170 158.8875 0001340  87.9945 272.1201 15.08850464117429
STARLINK-4114           
1 53162U 22083AG  24238.52746064  .00002609  00000+0  18196-3 0  9999
2 53162  53.2165 163.2831 0001471  90.0738 270.0423 15.08836634117275
STARLINK-4104           
1 53163U 22083AH  24238.51917484  .00006571  00000+0  43051-3 0  9995
2 53163  53.2153 163.4562 0001579  89.3285 270.7888 15.08846717116648
STARLINK-4116           
1 53164U 22083AJ  24239.11162867 -.00000057  00000+0  14498-4 0  9998
2 53164  53.2165 160.6527 0001363  88.5060 271.6088 15.08836488117361
STARLINK-4090           
1 53165U 22083AK  24239.09691098  .00000236  00000+0  32951-4 0  9991
2 53165  53.2178 160.7217 0001329  85.6784 274.4359 15.08829048117362
STARLINK-4110           
1 53166U 22083AL  24238.50810385  .00000215  00000+0  31622-4 0  9990
2 53166  53.2168 163.3618 0001508  81.0669 279.0494 15.08837036117274
STARLINK-3683           
1 53167U 22083AM  24238.91613159 -.00001149  00000+0 -54153-4 0  9999
2 53167  53.2159 146.5237 0001387  89.7841 270.3310 15.08825723116907
STARLINK-4105           
1 53168U 22083AN  24239.49802332  .00000213  00000+0  31474-4 0  9997
2 53168  53.2179 158.9188 0001557  79.8957 280.2210 15.08842243117422
STARLINK-4117           
1 53169U 22083AP  24239.02655713  .00000257  00000+0  34214-4 0  9999
2 53169  53.2165 146.2929 0001388  95.6485 264.4665 15.08833140117553
STARLINK-4095           
1 53170U 22083AQ  24239.45983205  .00000679  00000+0  60766-4 0  9997
2 53170  53.2161 154.0429 0001363  91.3448 268.7700 15.08846526117489
STARLINK-4052           
1 53171U 22083AR  24238.97083802  .00001015  00000+0  81866-4 0  9997
2 53171  53.2161 131.0435 0001389  95.2108 264.9042 15.08835841117122
STARLINK-4299           
1 53172U 22083AS  24238.92255005  .00000849  00000+0  71414-4 0  9991
2 53172  53.2172 156.4123 0001491  99.1839 260.9322 15.08836708116767
STARLINK-4300           
1 53173U 22083AT  24238.94280544  .00000214  00000+0  31567-4 0  9991
2 53173  53.2167 136.4004 0001424  96.6924 263.4231 15.08831698117043
STARLINK-4205           
1 53174U 22083AU  24239.09693226  .00000200  00000+0  30685-4 0  9999
2 53174  53.2171 170.6530 0001282  96.1729 263.9409 15.08834485117222
STARLINK-4292           
1 53175U 22083AV  24239.09966450 -.00000579  00000+0 -18308-4 0  9991
2 53175  53.2176 170.7044 0001567  95.4349 264.6822 15.08836207117226
STARLINK-4294           
1 53176U 22083AW  24239.43498053 -.00000060  00000+0  14334-4 0  9998
2 53176  53.2158 144.1132 0001204  76.9303 283.1823 15.08845084117626
STARLINK-4298           
1 53177U 22083AX  24238.93544548  .00001302  00000+0  99876-4 0  9997
2 53177  53.2165 136.4352 0001309  88.8348 271.2794 15.08831867117045
STARLINK-4280           
1 53178U 22083AY  24239.49066622  .00000089  00000+0  23704-4 0  9990
2 53178  53.2183 158.9548 0001502  90.3170 269.7995 15.08839464117404
STARLINK-4276           
1 53179U 22083AZ  24238.95333889  .00000363  00000+0  40904-4 0  9999
2 53179  53.2169 120.9645 0001324  87.5911 272.5232 15.08831586117266
STARLINK-4258           
1 53180U 22083BA  24239.37657151  .00000659  00000+0  59488-4 0  9994
2 53180  53.2179 119.3379 0001362  88.6027 271.5121 15.08838870117963
STARLINK-4273           
1 53181U 22083BB  24238.94502558  .00067654  00000+0  36051-2 0  9994
2 53181  53.2136 120.2216 0002868 182.7865 177.3114 15.14588819117277
STARLINK-4278           
1 53182U 22083BC  24238.93176230  .00001000  00000+0  80912-4 0  9998
2 53182  53.2175 136.4483 0001336  97.5343 262.5801 15.08838317117048
STARLINK-4268           
1 53183U 22083BD  24239.00627852  .00001770  00000+0  12926-3 0  9992
2 53183  53.2169 126.0414 0001344  91.8174 268.2972 15.08835056117835
STARLINK-4257           
1 53184U 22083BE  24238.94965857  .00003153  00000+0  21607-3 0  9998
2 53184  53.2153 120.9667 0001079  87.1002 273.0113 15.08844508117276
STARLINK-4391           
1 53189U 22084A   24238.90715859  .00000787  00000+0  65855-4 0  9999
2 53189  97.6545 298.7391 0001879  90.8519 269.2920 15.01257413115859
STARLINK-4332           
1 53190U 22084B   24238.73471896 -.00001051  00000+0 -77278-4 0  9991
2 53190  97.6564 298.5573 0002716 205.0886 155.0207 15.01248193115822
STARLINK-4369           
1 53191U 22084C   24238.89580141  .00000298  00000+0  27779-4 0  9994
2 53191  97.6541 298.7320 0001584  98.0900 262.0504 15.01256614115173
STARLINK-4375           
1 53192U 22084D   24239.16056407 -.00000703  00000+0 -50184-4 0  9998
2 53192  97.6551 298.9916 0001485  97.2755 262.8639 15.01252128115596
STARLINK-4351           
1 53193U 22084E   24238.89950141 -.00001887  00000+0 -14235-3 0  9996
2 53193  97.6540 298.7378 0001820  94.0449 266.0983 15.01265399116192
STARLINK-4382           
1 53194U 22084F   24238.89765346  .00000422  00000+0  37438-4 0  9991
2 53194  97.6540 298.7351 0001709  96.8258 263.3161 15.01254708115175
STARLINK-4404           
1 53195U 22084G   24238.88469364  .00009409  00000+0  73580-3 0  9993
2 53195  97.6546 298.7334 0000716 222.3286 137.7883 15.01281049115844
STARLINK-4407           
1 53196U 22084H   24239.41975968  .00000120  00000+0  13931-4 0  9992
2 53196  97.6553 299.2609 0000973 110.5005 249.6323 15.01256091115634
STARLINK-4403           
1 53197U 22084J   24238.75508851  .00000514  00000+0  44583-4 0  9996
2 53197  97.6550 298.5892 0000761 100.3618 259.7692 15.01256018115157
STARLINK-4385           
1 53198U 22084K   24238.89209317 -.00002378  00000+0 -18063-3 0  9992
2 53198  97.6547 298.7263 0001240  93.3084 266.8282 15.01254044115835
STARLINK-4395           
1 53199U 22084L   24238.89024581  .00000601  00000+0  51347-4 0  9999
2 53199  97.6548 298.7155 0001106  95.6907 264.4443 15.01256489115172
STARLINK-4417           
1 53200U 22084M   24238.88678845  .00001070  00000+0  87920-4 0  9996
2 53200  97.6552 298.7271 0000830 101.4437 258.6880 15.01253000115835
STARLINK-4405           
1 53201U 22084N   24238.74421406  .00000294  00000+0  27480-4 0  9993
2 53201  97.6555 298.5862 0003837 224.8330 135.2584 15.01256658115153
STARLINK-4411           
1 53202U 22084P   24239.41604727 -.00004166  00000+0 -31983-3 0  9994
2 53202  97.6550 299.2470 0000952 241.5375 118.5753 15.01275331115636
STARLINK-4409           
1 53203U 22084Q   24238.87912983  .00000155  00000+0  16716-4 0  9990
2 53203  97.6555 298.7086 0003364 233.1028 126.9888 15.01253380115172
STARLINK-4410           
1 53204U 22084R   24238.88307820 -.00000061  00000+0 -17739-6 0  9996
2 53204  97.6549 298.7175 0001175 220.7172 139.3965 15.01256656115831
STARLINK-4397           
1 53205U 22084S   24239.14204524  .00001247  00000+0  10163-3 0  9990
2 53205  97.6558 298.9670 0004241 215.1323 144.9622 15.01260137115591
STARLINK-4408           
1 53206U 22084T   24239.19757824  .00000857  00000+0  71279-4 0  9994
2 53206  97.6559 299.0578 0001337 205.4272 154.6887 15.01260891115600
STARLINK-4413           
1 53207U 22084U   24238.74027113  .00001618  00000+0  13053-3 0  9997
2 53207  97.6547 298.5710 0004104 204.1504 155.9528 15.01253609115154
STARLINK-4425           
1 53208U 22084V   24238.88098813  .00009075  00000+0  70976-3 0  9990
2 53208  97.6550 298.7115 0002724 223.4618 136.6392 15.01281830115170
STARLINK-4423           
1 53209U 22084W   24239.13858016  .00000347  00000+0  31634-4 0  9991
2 53209  97.6555 298.9634 0003266 200.3885 159.7209 15.01254613115594
STARLINK-4427           
1 53210U 22084X   24239.41049228 -.00003613  00000+0 -27670-3 0  9996
2 53210  97.6550 299.2314 0003562 221.2188 138.8767 15.01271437115632
STARLINK-4419           
1 53211U 22084Y   24239.13302011  .00001020  00000+0  83982-4 0  9995
2 53211  97.6560 298.9613 0001338 210.9736 149.1410 15.01264907115594
STARLINK-4416           
1 53212U 22084Z   24239.13833475  .00001155  00000+0  94517-4 0  9994
2 53212  97.6557 298.9632 0003769 195.9198 164.1908 15.01262237115599
STARLINK-4414           
1 53213U 22084AA  24239.19572977  .00001403  00000+0  11383-3 0  9993
2 53213  97.6559 299.0225 0000495 246.5146 113.6026 15.01262320115606
STARLINK-4353           
1 53214U 22084AB  24238.73656869 -.00000351  00000+0 -22722-4 0  9999
2 53214  97.6561 298.5673 0002854 206.8838 153.2239 15.01259618115151
STARLINK-4335           
1 53215U 22084AC  24238.92727645  .00000998  00000+0  82267-4 0  9997
2 53215  97.6573 298.7589 0001216  93.2075 266.9288 15.01254556115708
